H1 CPF 01  gfz 2021 09 28 12  7712 tandemx   
H2 1003001  6202 36605    2021 09 28 00 59 42 2021 10 03 00 00 42   120 1 1  0 0 0
H9
10 0 59486  82782.000000  0   -1491483.024   6407360.438  -2054265.011
10 0 59486  82902.000000  0   -1243868.840   6129470.735  -2896972.057
10 0 59486  83022.000000  0    -980413.599   5740280.947  -3688831.229
10 0 59486  83142.000000  0    -707615.053   5246458.714  -4416011.899
10 0 59486  83262.000000  0    -431991.211   4656594.092  -5065847.719
10 0 59486  83382.000000  0    -159933.574   3981039.151  -5627051.143
10 0 59486  83502.000000  0     102433.418   3231716.504  -6089901.655
10 0 59486  83622.000000  0     349383.197   2421900.680  -6446403.446
10 0 59486  83742.000000  0     575705.177   1565979.385  -6690411.294
10 0 59486  83862.000000  0     776809.396    679198.792  -6817726.640
10 0 59486  83982.000000  0     948815.348   -222604.677  -6826161.976
10 0 59486  84102.000000  0    1088623.913  -1123281.919  -6715573.910
10 0 59486  84222.000000  0    1193971.376  -2006652.864  -6487863.568
10 0 59486  84342.000000  0    1263465.493  -2856788.604  -6146947.870
10 0 59486  84462.000000  0    1296603.504  -3658293.595  -5698701.624
10 0 59486  84582.000000  0    1293769.850  -4396584.233  -5150866.275
10 0 59486  84702.000000  0    1256215.627  -5058155.106  -4512926.330
10 0 59486  84822.000000  0    1186019.125  -5630831.213  -3795957.159
10 0 59486  84942.000000  0    1086027.074  -6104001.316  -3012441.877
10 0 59486  85062.000000  0     959778.782  -6468825.483  -2176060.549
10 0 59486  85182.000000  0     811414.479  -6718413.000  -1301454.413
10 0 59486  85302.000000  0     645568.885  -6847964.642   -403968.100
10 0 59486  85422.000000  0     467252.915  -6854874.322    500624.270
10 0 59486  85542.000000  0     281726.642  -6738788.307   1396402.916
10 0 59486  85662.000000  0      94366.574  -6501619.995   2267591.400
10 0 59486  85782.000000  0     -89469.357  -6147518.224   3098844.709
10 0 59486  85902.000000  0    -264575.613  -5682788.245   3875528.229
10 0 59486  86022.000000  0    -426028.525  -5115770.613   4583978.992
10 0 59486  86142.000000  0    -569307.580  -4456682.520   5211748.417
10 0 59486  86262.000000  0    -690405.543  -3717423.817   5747820.410
10 0 59486  86382.000000  0    -785925.477  -2911352.240   6182802.640
10 0 59487    102.000000  0    -853162.278  -2053032.875   6509084.565
10 0 59487    222.000000  0    -890167.244  -1157971.099   6720962.987
10 0 59487    342.000000  0    -895795.237   -242330.729   6814737.185
10 0 59487    462.000000  0    -869733.735    677358.978   6788770.022
10 0 59487    582.000000  0    -812511.727   1584501.509   6643514.817
10 0 59487    702.000000  0    -725488.797   2462732.137   6381507.773
10 0 59487    822.000000  0    -610825.209   3296212.957   6007326.473
10 0 59487    942.000000  0    -471433.629   4069920.184   5527514.788
10 0 59487   1062.000000  0    -310912.835   4769918.301   4950473.767
10 0 59487   1182.000000  0    -133464.606   5383617.758   4286321.361
10 0 59487   1302.000000  0      56205.089   5900009.788   3546717.688
10 0 59487   1422.000000  0     252997.218   6309871.262   2744665.609
10 0 59487   1542.000000  0     451542.114   6605945.332   1894282.190
10 0 59487   1662.000000  0     646331.352   6783077.427   1010543.050
10 0 59487   1782.000000  0     831853.604   6838310.264    109012.598
10 0 59487   1902.000000  0    1002732.465   6770935.672   -794438.201
10 0 59487   2022.000000  0    1153861.163   6582500.544  -1683920.010
10 0 59487   2142.000000  0    1280531.048   6276768.296  -2543811.977
10 0 59487   2262.000000  0    1378551.319   5859636.738  -3359042.186
10 0 59487   2382.000000  0    1444357.125   5339014.123  -4115355.371
10 0 59487   2502.000000  0    1475103.506   4724657.154  -4799562.243
10 0 59487   2622.000000  0    1468742.770   4027975.629  -5399764.942
10 0 59487   2742.000000  0    1424083.718   3261810.814  -5905555.854
10 0 59487   2862.000000  0    1340831.979   2440191.085  -6308188.588
10 0 59487   2982.000000  0    1219610.430   1578070.706  -6600716.863
10 0 59487   3102.000000  0    1061960.600    691058.730  -6778103.420
10 0 59487   3222.000000  0     870324.436   -204860.484  -6837298.333
10 0 59487   3342.000000  0     648006.805  -1093610.173  -6777285.018
10 0 59487   3462.000000  0     399119.307  -1959302.307  -6599094.137
10 0 59487   3582.000000  0     128507.080  -2786512.928  -6305788.200
10 0 59487   3702.000000  0    -158342.225  -3560552.479  -5902416.845
10 0 59487   3822.000000  0    -455405.121  -4267724.800  -5395937.963
10 0 59487   3942.000000  0    -756242.517  -4895570.295  -4795109.046
10 0 59487   4062.000000  0   -1054133.016  -5433090.979  -4110347.541
10 0 59487   4182.000000  0   -1342216.655  -5870951.958  -3353560.387
10 0 59487   4302.000000  0   -1613645.765  -6201654.361  -2537944.777
10 0 59487   4422.000000  0   -1861739.959  -6419676.171  -1677763.056
10 0 59487   4542.000000  0   -2080141.575  -6521577.067   -788093.899
10 0 59487   4662.000000  0   -2262967.534  -6506062.930    115435.655
10 0 59487   4782.000000  0   -2404953.991  -6374007.222   1016931.372
10 0 59487   4902.000000  0   -2501589.624  -6128428.555   1900519.862
10 0 59487   5022.000000  0   -2549233.980  -5774424.706   2750637.377
10 0 59487   5142.000000  0   -2545217.437  -5319064.532   3552312.432
10 0 59487   5262.000000  0   -2487920.207  -4771241.039   4291435.627
10 0 59487   5382.000000  0   -2376829.112  -4141490.351   4955011.211
10 0 59487   5502.000000  0   -2212571.485  -3441780.963   5531386.844
10 0 59487   5622.000000  0   -1996924.056  -2685276.850   6010456.256
10 0 59487   5742.000000  0   -1732796.990  -1886083.176   6383831.281
10 0 59487   5862.000000  0   -1424194.424  -1058979.247   6644983.579
10 0 59487   5982.000000  0   -1076152.763   -219141.233   6789352.685
10 0 59487   6102.000000  0    -694658.507    618136.699   6814419.101
10 0 59487   6222.000000  0    -286545.404   1437719.882   6719746.387
10 0 59487   6342.000000  0     140628.047   2224906.587   6506988.541
10 0 59487   6462.000000  0     578718.354   2965691.691   6179862.501
10 0 59487   6582.000000  0    1019151.097   3647016.267   5744087.255
10 0 59487   6702.000000  0    1453087.291   4257000.970   5207289.493
10 0 59487   6822.000000  0    1871599.571   4785158.386   4578876.255
10 0 59487   6942.000000  0    2265855.304   5222580.446   3869874.851
10 0 59487   7062.000000  0    2627302.408   5562094.989   3092743.537
10 0 59487   7182.000000  0    2947854.363   5798393.826   2261154.999
10 0 59487   7302.000000  0    3220069.737   5928123.345   1389750.931
10 0 59487   7422.000000  0    3437320.230   5949933.469    493878.251
10 0 59487   7542.000000  0    3593944.018   5864487.842   -410688.381
10 0 59487   7662.000000  0    3685381.311   5674432.570  -1308032.971
10 0 59487   7782.000000  0    3708287.380   5384325.338  -2182386.049
10 0 59487   7902.000000  0    3660621.197   5000526.815  -3018409.125
10 0 59487   8022.000000  0    3541706.420   4531056.530  -3801468.840
10 0 59487   8142.000000  0    3352263.690   3985417.991  -4517893.794
10 0 59487   8262.000000  0    3094415.265   3374399.655  -5155210.331
10 0 59487   8382.000000  0    2771661.370   2709854.807  -5702354.043
10 0 59487   8502.000000  0    2388829.865   2004466.268  -6149852.466
10 0 59487   8622.000000  0    1952000.177   1271501.698  -6489978.061
10 0 59487   8742.000000  0    1468404.620    524564.490  -6716869.124
10 0 59487   8862.000000  0     946308.967   -222654.787  -6826621.219
10 0 59487   8982.000000  0     394871.506   -956624.807  -6817347.771
10 0 59487   9102.000000  0    -176014.732  -1664212.559  -6689207.067
10 0 59487   9222.000000  0    -755894.221  -2332911.194  -6444399.934
10 0 59487   9342.000000  0   -1333935.820  -2951056.931  -6087137.547
10 0 59487   9462.000000  0   -1899130.120  -3508030.477  -5623576.004
10 0 59487   9582.000000  0   -2440494.560  -3994439.509  -5061721.283
10 0 59487   9702.000000  0   -2947285.067  -4402281.648  -4411303.578
10 0 59487   9822.000000  0   -3409209.588  -4725082.720  -3683619.041
10 0 59487   9942.000000  0   -3816638.032  -4958006.944  -2891342.467
10 0 59487  10062.000000  0   -4160805.479  -5097937.253  -2048312.771
10 0 59487  10182.000000  0   -4434003.373  -5143522.674  -1169293.598
10 0 59487  10302.000000  0   -4629753.430  -5095191.155   -269713.187
10 0 59487  10422.000000  0   -4742959.423  -4955126.945    634611.503
10 0 59487  10542.000000  0   -4770032.843  -4727212.187   1527761.059
10 0 59487  10662.000000  0   -4708988.037  -4416932.938   2394003.641
10 0 59487  10782.000000  0   -4559504.445  -4031252.765   3218080.829
10 0 59487  10902.000000  0   -4322955.174  -3578457.656   3985483.516
10 0 59487  11022.000000  0   -4002400.795  -3067976.019   4682712.924
10 0 59487  11142.000000  0   -3602548.046  -2510177.834   5297519.520
10 0 59487  11262.000000  0   -3129676.924  -1916160.424   5819115.895
10 0 59487  11382.000000  0   -2591537.598  -1297525.201   6238363.081
10 0 59487  11502.000000  0   -1997218.290   -666147.869   6547926.868
10 0 59487  11622.000000  0   -1356986.290    -33947.564   6742399.850
10 0 59487  11742.000000  0    -682107.672    587337.239   6818388.212
10 0 59487  11862.000000  0      15350.829   1186365.404   6774567.466
10 0 59487  11982.000000  0     722737.176   1752399.830   6611704.422
10 0 59487  12102.000000  0    1427043.193   2275500.139   6332644.340
10 0 59487  12222.000000  0    2115142.889   2746697.101   5942263.678
10 0 59487  12342.000000  0    2774036.798   3158147.788   5447390.889
10 0 59487  12462.000000  0    3391099.957   3503269.715   4856693.669
10 0 59487  12582.000000  0    3954326.949   3776849.602   4180531.025
10 0 59487  12702.000000  0    4452568.269   3975125.106   3430777.906
10 0 59487  12822.000000  0    4875759.592   4095840.251   2620618.869
99
